[{"OBJECT_NAME":"STARLINK-4416","OBJECT_ID":"2022-084Z","EPOCH":"2026-03-09T17:01:49.872864","MEAN_MOTION":15.05644818,"ECCENTRICITY":7.226e-5,"INCLINATION":97.6036,"RA_OF_ASC_NODE":131.2322,"ARG_OF_PERICENTER":136.2478,"MEAN_ANOMALY":223.8806,"EPHEMERIS_TYPE":0,"CLASSIFICATION_TYPE":"U","NORAD_CAT_ID":53212,"ELEMENT_SET_NO":999,"REV_AT_EPOCH":19937,"BSTAR":3.3266858e-5,"MEAN_MOTION_DOT":4.19e-6,"MEAN_MOTION_DDOT":0},{"OBJECT_NAME":"OBJECT R","OBJECT_ID":"2021-022R","EPOCH":"2026-03-09T22:54:37.456416","MEAN_MOTION":15.08912229,"ECCENTRICITY":0.00182027,"INCLINATION":97.3728,"RA_OF_ASC_NODE":308.5333,"ARG_OF_PERICENTER":149.1845,"MEAN_ANOMALY":211.0456,"EPHEMERIS_TYPE":0,"CLASSIFICATION_TYPE":"U","NORAD_CAT_ID":47947,"ELEMENT_SET_NO":999,"REV_AT_EPOCH":27304,"BSTAR":2.1057411e-5,"MEAN_MOTION_DOT":2.72e-6,"MEAN_MOTION_DDOT":0}]
